CCSDS_OMM_VERS,COMMENT,CREATION_DATE,ORIGINATOR,OBJECT_NAME,OBJECT_ID,CENTER_NAME,REF_FRAME,TIME_SYSTEM,MEAN_ELEMENT_THEORY,EPOCH,MEAN_MOTION,ECCENTRICITY,INCLINATION,RA_OF_ASC_NODE,ARG_OF_PERICENTER,MEAN_ANOMALY,EPHEMERIS_TYPE,CLASSIFICATION_TYPE,NORAD_CAT_ID,ELEMENT_SET_NO,REV_AT_EPOCH,BSTAR,MEAN_MOTION_DOT,MEAN_MOTION_DDOT,SEMIMAJOR_AXIS,PERIOD,APOAPSIS,PERIAPSIS,OBJECT_TYPE,RCS_SIZE,COUNTRY_CODE,LAUNCH_DATE,SITE,DECAY_DATE,FILE,GP_ID,TLE_LINE0,TLE_LINE1,TLE_LINE2
2,GENERATED VIA SPACE-TRACK.ORG API,2012-11-13T15:30:48,18 SPCS,GALILEO-FM3,2012-055A,EARTH,TEME,UTC,SGP4,2012-11-13T19:09:26.612351,1.70473115,0.0001948,55.3255,238.6578,266.222,93.9774,0,U,38857,999,55,0.0001,-1.4e-07,0,29600.441,844.707,23228.072,23216.54,PAYLOAD,SMALL,ESA,2012-10-12,FRGUI,,1385380,91384278,0 GALILEO-FM3,1 38857U 12055A   12318.79822468 -.00000014  00000-0  10000-3 0  9995,2 38857 055.3255 238.6578 0001948 266.2220 093.9774 01.70473115   557
2,GENERATED VIA SPACE-TRACK.ORG API,2012-11-16T15:25:40,18 SPCS,GALILEO-FM3,2012-055A,EARTH,TEME,UTC,SGP4,2012-11-16T03:27:45.443808,1.70473497,0.0001795,55.3243,238.5922,259.8235,100.1985,0,U,38857,999,59,0.0001,-1.6e-07,0,29600.397,844.706,23227.575,23216.948,PAYLOAD,SMALL,ESA,2012-10-12,FRGUI,,1387652,91411417,0 GALILEO-FM3,1 38857U 12055A   12321.14427597 -.00000016  00000-0  10000-3 0  9994,2 38857 055.3243 238.5922 0001795 259.8235 100.1985 01.70473497   592
2,GENERATED VIA SPACE-TRACK.ORG API,2012-11-19T11:20:28,18 SPCS,GALILEO-FM3,2012-055A,EARTH,TEME,UTC,SGP4,2012-11-19T15:55:50.907360,1.70473492,0.0001969,55.3256,238.495,259.8188,100.1985,0,U,38857,999,65,0.0001,-3.9e-07,0,29600.397,844.706,23228.091,23216.434,PAYLOAD,SMALL,ESA,2012-10-12,FRGUI,,1389191,91435728,0 GALILEO-FM3,1 38857U 12055A   12324.66378365 -.00000039  00000-0  10000-3 0  9997,2 38857 055.3256 238.4950 0001969 259.8188 100.1985 01.70473492   658
2,GENERATED VIA SPACE-TRACK.ORG API,2012-11-21T23:32:57,18 SPCS,GALILEO-FM3,2012-055A,EARTH,TEME,UTC,SGP4,2012-11-22T00:14:33.923039,1.70473528,0.0001869,55.3229,238.4283,258.8716,101.1397,0,U,38857,999,69,0.0001,-4.6e-07,0,29600.393,844.705,23227.79,23216.726,PAYLOAD,SMALL,ESA,2012-10-12,FRGUI,,1391073,91455747,0 GALILEO-FM3,1 38857U 12055A   12327.01011485 -.00000046  00000-0  10000-3 0  9994,2 38857 055.3229 238.4283 0001869 258.8716 101.1397 01.70473528   694
2,GENERATED VIA SPACE-TRACK.ORG API,2012-11-25T07:34:37,18 SPCS,GALILEO-FM3,2012-055A,EARTH,TEME,UTC,SGP4,2012-11-24T22:38:00.051360,1.70473538,0.0001778,55.3199,238.3451,257.6706,102.3498,0,U,38857,999,74,0.0001,-3.2e-07,0,29600.392,844.705,23227.52,23216.994,PAYLOAD,SMALL,ESA,2012-10-12,FRGUI,,1392445,91483780,0 GALILEO-FM3,1 38857U 12055A   12329.94305615 -.00000032  00000-0  10000-3 0  9994,2 38857 055.3199 238.3451 0001778 257.6706 102.3498 01.70473538   743
2,GENERATED VIA SPACE-TRACK.ORG API,2012-11-29T10:40:13,18 SPCS,GALILEO-FM3,2012-055A,EARTH,TEME,UTC,SGP4,2012-11-26T02:47:22.815456,1.70473564,0.0001786,55.3192,238.3126,257.0149,103.0121,0,U,38857,999,77,0.0001,-2.3e-07,0,29600.389,844.705,23227.541,23216.967,PAYLOAD,SMALL,ESA,2012-10-12,FRGUI,,1394003,91513617,0 GALILEO-FM3,1 38857U 12055A   12331.11623629 -.00000023 +00000-0 +10000-3 0  9994,2 38857 055.3192 238.3126 0001786 257.0149 103.0121 01.70473564000772
2,GENERATED VIA SPACE-TRACK.ORG API,2012-11-29T10:41:10,18 SPCS,GALILEO-FM3,2012-055A,EARTH,TEME,UTC,SGP4,2012-11-27T21:01:27.260543,1.70473608,0.000179,55.3178,238.2631,256.2639,103.7761,0,U,38857,999,80,0.0001,-1.1e-07,0,29600.384,844.705,23227.547,23216.95,PAYLOAD,SMALL,ESA,2012-10-12,FRGUI,,1394004,91524816,0 GALILEO-FM3,1 38857U 12055A   12332.87600996 -.00000011 +00000-0 +10000-3 0  9997,2 38857 055.3178 238.2631 0001790 256.2639 103.7761 01.70473608000806
2,GENERATED VIA SPACE-TRACK.ORG API,2012-11-29T14:50:01,18 SPCS,GALILEO-FM3,2012-055A,EARTH,TEME,UTC,SGP4,2012-11-27T21:01:27.539615,1.70473604,0.0001786,55.3176,238.2628,256.2368,103.805,0,U,38857,999,79,0.0001,-1.1e-07,0,29600.384,844.705,23227.536,23216.963,PAYLOAD,SMALL,ESA,2012-10-12,FRGUI,,1394787,91526187,0 GALILEO-FM3,1 38857U 12055A   12332.87601319 -.00000011  00000-0  10000-3 0  9997,2 38857 055.3176 238.2628 0001786 256.2368 103.8050 01.70473604   790
2,GENERATED VIA SPACE-TRACK.ORG API,2012-11-30T23:33:03,18 SPCS,GALILEO-FM3,2012-055A,EARTH,TEME,UTC,SGP4,2012-11-30T19:24:54.523296,1.7047367,0.0001625,55.3163,238.1818,259.3115,100.747,0,U,38857,999,84,0.0001,5e-08,0,29600.377,844.705,23227.052,23217.432,PAYLOAD,SMALL,ESA,2012-10-12,FRGUI,,1396428,91548951,0 GALILEO-FM3,1 38857U 12055A   12335.80896439  .00000005  00000-0  10000-3 0  9994,2 38857 055.3163 238.1818 0001625 259.3115 100.7470 01.70473670   843
2,GENERATED VIA SPACE-TRACK.ORG API,2012-12-03T15:30:59,18 SPCS,GALILEO-FM3,2012-055A,EARTH,TEME,UTC,SGP4,2012-12-03T03:43:38.496288,1.70473683,0.0001641,55.3146,238.1159,258.008,102.0531,0,U,38857,999,88,0.0001,1.1e-07,0,29600.375,844.705,23227.098,23217.383,PAYLOAD,SMALL,ESA,2012-10-12,FRGUI,,1397643,91571676,0 GALILEO-FM3,1 38857U 12055A   12338.15530667  .00000011  00000-0  10000-3 0  9990,2 38857 055.3146 238.1159 0001641 258.0080 102.0531 01.70473683   888
2,GENERATED VIA SPACE-TRACK.ORG API,2012-12-06T07:27:57,18 SPCS,GALILEO-FM3,2012-055A,EARTH,TEME,UTC,SGP4,2012-12-06T02:07:02.419679,1.70473682,0.0001601,55.3128,238.0339,257.7976,102.2574,0,U,38857,999,93,0.0001,1e-07,0,29600.375,844.705,23226.979,23217.501,PAYLOAD,SMALL,ESA,2012-10-12,FRGUI,,1399325,91590797,0 GALILEO-FM3,1 38857U 12055A   12341.08822245  .00000010  00000-0  10000-3 0  9991,2 38857 055.3128 238.0339 0001601 257.7976 102.2574 01.70473682   937
2,GENERATED VIA SPACE-TRACK.ORG API,2012-12-09T07:37:13,18 SPCS,GALILEO-FM3,2012-055A,EARTH,TEME,UTC,SGP4,2012-12-09T00:30:27.628704,1.70473668,0.0001472,55.3111,237.9522,260.2434,99.813,0,U,38857,999,98,0.0001,1.3e-07,0,29600.377,844.705,23226.599,23217.885,PAYLOAD,LARGE,ESA,2012-10-12,FRGUI,,1400842,91614942,0 GALILEO-FM3,1 38857U 12055A   12344.02115311  .00000013  00000-0  10000-3 0  9990,2 38857 055.3111 237.9522 0001472 260.2434 099.8130 01.70473668   983
2,GENERATED VIA SPACE-TRACK.ORG API,2012-12-12T07:33:44,18 SPCS,GALILEO-FM3,2012-055A,EARTH,TEME,UTC,SGP4,2012-12-11T22:53:54.647807,1.70473688,0.000136,55.3093,237.8704,261.881,98.1907,0,U,38857,999,103,0.0001,2.1e-07,0,29600.375,844.705,23226.265,23218.214,PAYLOAD,LARGE,ESA,2012-10-12,FRGUI,,1402334,91638485,0 GALILEO-FM3,1 38857U 12055A   12346.95410472  .00000021  00000-0  10000-3 0  9999,2 38857 055.3093 237.8704 0001360 261.8810 098.1907 01.70473688  1037
2,GENERATED VIA SPACE-TRACK.ORG API,2012-12-15T07:33:57,18 SPCS,GALILEO-FM3,2012-055A,EARTH,TEME,UTC,SGP4,2012-12-14T21:17:20.610240,1.70473628,0.000135,55.3077,237.7884,256.7392,103.338,0,U,38857,999,108,0.0001,1.3e-07,0,29600.382,844.705,23226.243,23218.25,PAYLOAD,LARGE,ESA,2012-10-12,FRGUI,,1404462,91664166,0 GALILEO-FM3,1 38857U 12055A   12349.88704410  .00000013  00000-0  10000-3 0  9993,2 38857 055.3077 237.7884 0001350 256.7392 103.3380 01.70473628  1087
2,GENERATED VIA SPACE-TRACK.ORG API,2012-12-17T14:54:34,18 SPCS,GALILEO-FM3,2012-055A,EARTH,TEME,UTC,SGP4,2012-12-17T05:36:03.612096,1.70473618,0.0001328,55.3062,237.723,258.0409,102.0293,0,U,38857,999,112,0.0001,-3e-08,0,29600.383,844.705,23226.179,23218.317,PAYLOAD,LARGE,ESA,2012-10-12,FRGUI,,1405511,91683463,0 GALILEO-FM3,1 38857U 12055A   12352.23337514 -.00000003  00000-0  10000-3 0  9993,2 38857 055.3062 237.7230 0001328 258.0409 102.0293 01.70473618  1128
2,GENERATED VIA SPACE-TRACK.ORG API,2012-12-19T15:35:51,18 SPCS,GALILEO-FM3,2012-055A,EARTH,TEME,UTC,SGP4,2012-12-19T13:54:46.600128,1.70473575,0.0001199,55.3046,237.6578,259.8808,100.1796,0,U,38857,999,116,0.0001,-7e-08,0,29600.388,844.705,23225.802,23218.704,PAYLOAD,LARGE,ESA,2012-10-12,FRGUI,,1407057,91700493,0 GALILEO-FM3,1 38857U 12055A   12354.57970602 -.00000007  00000-0  10000-3 0  9997,2 38857 055.3046 237.6578 0001199 259.8808 100.1796 01.70473575  1165
2,GENERATED VIA SPACE-TRACK.ORG API,2012-12-21T23:28:02,18 SPCS,GALILEO-FM3,2012-055A,EARTH,TEME,UTC,SGP4,2012-12-21T22:13:31.325664,1.70473543,0.0001157,55.3032,237.5925,255.9073,104.1573,0,U,38857,999,120,0.0001,6e-08,0,29600.391,844.705,23225.681,23218.832,PAYLOAD,LARGE,ESA,2012-10-12,FRGUI,,1408683,91722598,0 GALILEO-FM3,1 38857U 12055A   12356.92605701  .00000006  00000-0  10000-3 0  9991,2 38857 055.3032 237.5925 0001157 255.9073 104.1573 01.70473543  1207
2,GENERATED VIA SPACE-TRACK.ORG API,2012-12-24T15:32:13,18 SPCS,GALILEO-FM3,2012-055A,EARTH,TEME,UTC,SGP4,2012-12-24T06:32:17.430144,1.70473503,0.0001126,55.3021,237.5269,256.6176,103.4602,0,U,38857,999,124,0.0001,2.4e-07,0,29600.396,844.706,23225.594,23218.928,PAYLOAD,LARGE,ESA,2012-10-12,FRGUI,,1410046,91743811,0 GALILEO-FM3,1 38857U 12055A   12359.27242396  .00000024  00000-0  10000-3 0  9999,2 38857 055.3021 237.5269 0001126 256.6176 103.4602 01.70473503  1249
2,GENERATED VIA SPACE-TRACK.ORG API,2012-12-27T15:31:41,18 SPCS,GALILEO-FM3,2012-055A,EARTH,TEME,UTC,SGP4,2012-12-27T04:55:44.226336,1.7047348,0.0001122,55.3007,237.4451,254.5218,105.568,0,U,38857,999,129,0.0001,4.2e-07,0,29600.399,844.706,23225.585,23218.943,PAYLOAD,LARGE,ESA,2012-10-12,FRGUI,,1411783,91767984,0 GALILEO-FM3,1 38857U 12055A   12362.20537299  .00000042  00000-0  10000-3 0  9995,2 38857 055.3007 237.4451 0001122 254.5218 105.5680 01.70473480  1293
2,GENERATED VIA SPACE-TRACK.ORG API,2012-12-29T15:34:07,18 SPCS,GALILEO-FM3,2012-055A,EARTH,TEME,UTC,SGP4,2012-12-29T13:14:28.397183,1.70473488,7.9e-05,55.3,237.3801,258.6748,101.4148,0,U,38857,999,133,0.0001,5.1e-07,0,29600.398,844.706,23224.601,23219.924,PAYLOAD,LARGE,ESA,2012-10-12,FRGUI,,1413069,91784865,0 GALILEO-FM3,1 38857U 12055A   12364.55171756  .00000051  00000-0  10000-3 0  9997,2 38857 055.3000 237.3801 0000790 258.6748 101.4148 01.70473488  1334
